KUIPER-00027            
1 63740U 25088S   25251.25002315  .00055378  00000+0  42991-2 0  9990
2 63740  51.8917 183.1595 0002865 286.7094 254.4103 15.00803178  5807
KUIPER-00028            
1 63741U 25088T   25251.25002315  .00053176  00000+0  34548-2 0  9994
2 63741  51.8887 181.8980 0002465 265.6620 139.0090 15.07504650  4693
KUIPER-00029            
1 63742U 25088U   25251.25002315  .00053941  00000+0  30162-2 0  9993
2 63742  51.8827 181.2034 0004589 240.1165  80.0077 15.12946460  5026
KUIPER-00030            
1 63743U 25088V   25251.24605082 -.00005813  00000+0 -73312-3 0  9995
2 63743  51.9013 197.2959 0013420 192.0089 168.0555 14.79899961 20617
KUIPER-00031            
1 63744U 25088W   25251.25002315  .00045347  00000+0  40223-2 0  9995
2 63744  51.8891 184.0727 0002422 171.1106 166.3191 14.95747485  3783
KUIPER-00032            
1 63745U 25088X   25251.18222982  .00013042  00000+0  45551-3 0  9999
2 63745  51.8733 181.4494 0004777 172.5374 187.5682 15.29893980 21542
KUIPER-00033            
1 63746U 25088Y   25250.62054614  .00004576  00000+0  62869-3 0  9996
2 63746  51.8988 216.1224 0002830 309.1354  50.9357 14.79942801 20492
KUIPER-00034            
1 63747U 25088Z   25251.25002315  .00059555  00000+0  27243-2 0  9991
2 63747  51.8788 179.5971 0001075 136.7614 319.6888 15.19959755  5505
