<?xml version="1.0" encoding="UTF-8"?>
<ndm xmlns:xsi="http://www.w3.org/2001/XMLSchema-instance" xsi:noNamespaceSchemaLocation="https://sanaregistry.org/r/ndmxml_unqualified/ndmxml-2.0.0-master-2.0.xsd">
<omm id="CCSDS_OMM_VERS" version="2.0">
<header><CREATION_DATE/><ORIGINATOR/></header><body><segment><metadata><OBJECT_NAME>KUIPER-00027</OBJECT_NAME><OBJECT_ID>2025-088S</OBJECT_ID><CENTER_NAME>EARTH</CENTER_NAME><REF_FRAME>TEME</REF_FRAME><TIME_SYSTEM>UTC</TIME_SYSTEM><MEAN_ELEMENT_THEORY>SGP4</MEAN_ELEMENT_THEORY></metadata><data><meanElements><EPOCH>2025-09-08T06:00:02.000160</EPOCH><MEAN_MOTION>15.00803178</MEAN_MOTION><ECCENTRICITY>.00028651</ECCENTRICITY><INCLINATION>51.8917</INCLINATION><RA_OF_ASC_NODE>183.1595</RA_OF_ASC_NODE><ARG_OF_PERICENTER>286.7094</ARG_OF_PERICENTER><MEAN_ANOMALY>254.4103</MEAN_ANOMALY></meanElements><tleParameters><EPHEMERIS_TYPE>0</EPHEMERIS_TYPE><CLASSIFICATION_TYPE>U</CLASSIFICATION_TYPE><NORAD_CAT_ID>63740</NORAD_CAT_ID><ELEMENT_SET_NO>999</ELEMENT_SET_NO><REV_AT_EPOCH>580</REV_AT_EPOCH><BSTAR>.42991206E-2</BSTAR><MEAN_MOTION_DOT>.55378E-3</MEAN_MOTION_DOT><MEAN_MOTION_DDOT>0</MEAN_MOTION_DDOT></tleParameters></data></segment></body></omm>
<omm id="CCSDS_OMM_VERS" version="2.0">
<header><CREATION_DATE/><ORIGINATOR/></header><body><segment><metadata><OBJECT_NAME>KUIPER-00028</OBJECT_NAME><OBJECT_ID>2025-088T</OBJECT_ID><CENTER_NAME>EARTH</CENTER_NAME><REF_FRAME>TEME</REF_FRAME><TIME_SYSTEM>UTC</TIME_SYSTEM><MEAN_ELEMENT_THEORY>SGP4</MEAN_ELEMENT_THEORY></metadata><data><meanElements><EPOCH>2025-09-08T06:00:02.000160</EPOCH><MEAN_MOTION>15.07504650</MEAN_MOTION><ECCENTRICITY>.00024657</ECCENTRICITY><INCLINATION>51.8887</INCLINATION><RA_OF_ASC_NODE>181.8980</RA_OF_ASC_NODE><ARG_OF_PERICENTER>265.6620</ARG_OF_PERICENTER><MEAN_ANOMALY>139.0090</MEAN_ANOMALY></meanElements><tleParameters><EPHEMERIS_TYPE>0</EPHEMERIS_TYPE><CLASSIFICATION_TYPE>U</CLASSIFICATION_TYPE><NORAD_CAT_ID>63741</NORAD_CAT_ID><ELEMENT_SET_NO>999</ELEMENT_SET_NO><REV_AT_EPOCH>469</REV_AT_EPOCH><BSTAR>.34547982E-2</BSTAR><MEAN_MOTION_DOT>.53176E-3</MEAN_MOTION_DOT><MEAN_MOTION_DDOT>0</MEAN_MOTION_DDOT></tleParameters></data></segment></body></omm>
<omm id="CCSDS_OMM_VERS" version="2.0">
<header><CREATION_DATE/><ORIGINATOR/></header><body><segment><metadata><OBJECT_NAME>KUIPER-00029</OBJECT_NAME><OBJECT_ID>2025-088U</OBJECT_ID><CENTER_NAME>EARTH</CENTER_NAME><REF_FRAME>TEME</REF_FRAME><TIME_SYSTEM>UTC</TIME_SYSTEM><MEAN_ELEMENT_THEORY>SGP4</MEAN_ELEMENT_THEORY></metadata><data><meanElements><EPOCH>2025-09-08T06:00:02.000160</EPOCH><MEAN_MOTION>15.12946460</MEAN_MOTION><ECCENTRICITY>.00045891</ECCENTRICITY><INCLINATION>51.8827</INCLINATION><RA_OF_ASC_NODE>181.2034</RA_OF_ASC_NODE><ARG_OF_PERICENTER>240.1165</ARG_OF_PERICENTER><MEAN_ANOMALY>80.0077</MEAN_ANOMALY></meanElements><tleParameters><EPHEMERIS_TYPE>0</EPHEMERIS_TYPE><CLASSIFICATION_TYPE>U</CLASSIFICATION_TYPE><NORAD_CAT_ID>63742</NORAD_CAT_ID><ELEMENT_SET_NO>999</ELEMENT_SET_NO><REV_AT_EPOCH>502</REV_AT_EPOCH><BSTAR>.30162468E-2</BSTAR><MEAN_MOTION_DOT>.53941E-3</MEAN_MOTION_DOT><MEAN_MOTION_DDOT>0</MEAN_MOTION_DDOT></tleParameters></data></segment></body></omm>
<omm id="CCSDS_OMM_VERS" version="2.0">
<header><CREATION_DATE/><ORIGINATOR/></header><body><segment><metadata><OBJECT_NAME>KUIPER-00030</OBJECT_NAME><OBJECT_ID>2025-088V</OBJECT_ID><CENTER_NAME>EARTH</CENTER_NAME><REF_FRAME>TEME</REF_FRAME><TIME_SYSTEM>UTC</TIME_SYSTEM><MEAN_ELEMENT_THEORY>SGP4</MEAN_ELEMENT_THEORY></metadata><data><meanElements><EPOCH>2025-09-08T05:54:18.790848</EPOCH><MEAN_MOTION>14.79899961</MEAN_MOTION><ECCENTRICITY>.00134207</ECCENTRICITY><INCLINATION>51.9013</INCLINATION><RA_OF_ASC_NODE>197.2959</RA_OF_ASC_NODE><ARG_OF_PERICENTER>192.0089</ARG_OF_PERICENTER><MEAN_ANOMALY>168.0555</MEAN_ANOMALY></meanElements><tleParameters><EPHEMERIS_TYPE>0</EPHEMERIS_TYPE><CLASSIFICATION_TYPE>U</CLASSIFICATION_TYPE><NORAD_CAT_ID>63743</NORAD_CAT_ID><ELEMENT_SET_NO>999</ELEMENT_SET_NO><REV_AT_EPOCH>2061</REV_AT_EPOCH><BSTAR>-.73311723E-3</BSTAR><MEAN_MOTION_DOT>-.5813E-4</MEAN_MOTION_DOT><MEAN_MOTION_DDOT>0</MEAN_MOTION_DDOT></tleParameters></data></segment></body></omm>
<omm id="CCSDS_OMM_VERS" version="2.0">
<header><CREATION_DATE/><ORIGINATOR/></header><body><segment><metadata><OBJECT_NAME>KUIPER-00031</OBJECT_NAME><OBJECT_ID>2025-088W</OBJECT_ID><CENTER_NAME>EARTH</CENTER_NAME><REF_FRAME>TEME</REF_FRAME><TIME_SYSTEM>UTC</TIME_SYSTEM><MEAN_ELEMENT_THEORY>SGP4</MEAN_ELEMENT_THEORY></metadata><data><meanElements><EPOCH>2025-09-08T06:00:02.000160</EPOCH><MEAN_MOTION>14.95747485</MEAN_MOTION><ECCENTRICITY>.00024223</ECCENTRICITY><INCLINATION>51.8891</INCLINATION><RA_OF_ASC_NODE>184.0727</RA_OF_ASC_NODE><ARG_OF_PERICENTER>171.1106</ARG_OF_PERICENTER><MEAN_ANOMALY>166.3191</MEAN_ANOMALY></meanElements><tleParameters><EPHEMERIS_TYPE>0</EPHEMERIS_TYPE><CLASSIFICATION_TYPE>U</CLASSIFICATION_TYPE><NORAD_CAT_ID>63744</NORAD_CAT_ID><ELEMENT_SET_NO>999</ELEMENT_SET_NO><REV_AT_EPOCH>378</REV_AT_EPOCH><BSTAR>.40223007E-2</BSTAR><MEAN_MOTION_DOT>.45347E-3</MEAN_MOTION_DOT><MEAN_MOTION_DDOT>0</MEAN_MOTION_DDOT></tleParameters></data></segment></body></omm>
<omm id="CCSDS_OMM_VERS" version="2.0">
<header><CREATION_DATE/><ORIGINATOR/></header><body><segment><metadata><OBJECT_NAME>KUIPER-00032</OBJECT_NAME><OBJECT_ID>2025-088X</OBJECT_ID><CENTER_NAME>EARTH</CENTER_NAME><REF_FRAME>TEME</REF_FRAME><TIME_SYSTEM>UTC</TIME_SYSTEM><MEAN_ELEMENT_THEORY>SGP4</MEAN_ELEMENT_THEORY></metadata><data><meanElements><EPOCH>2025-09-08T04:22:24.656448</EPOCH><MEAN_MOTION>15.29893980</MEAN_MOTION><ECCENTRICITY>.00047771</ECCENTRICITY><INCLINATION>51.8733</INCLINATION><RA_OF_ASC_NODE>181.4494</RA_OF_ASC_NODE><ARG_OF_PERICENTER>172.5374</ARG_OF_PERICENTER><MEAN_ANOMALY>187.5682</MEAN_ANOMALY></meanElements><tleParameters><EPHEMERIS_TYPE>0</EPHEMERIS_TYPE><CLASSIFICATION_TYPE>U</CLASSIFICATION_TYPE><NORAD_CAT_ID>63745</NORAD_CAT_ID><ELEMENT_SET_NO>999</ELEMENT_SET_NO><REV_AT_EPOCH>2154</REV_AT_EPOCH><BSTAR>.4555128E-3</BSTAR><MEAN_MOTION_DOT>.13042E-3</MEAN_MOTION_DOT><MEAN_MOTION_DDOT>0</MEAN_MOTION_DDOT></tleParameters></data></segment></body></omm>
<omm id="CCSDS_OMM_VERS" version="2.0">
<header><CREATION_DATE/><ORIGINATOR/></header><body><segment><metadata><OBJECT_NAME>KUIPER-00033</OBJECT_NAME><OBJECT_ID>2025-088Y</OBJECT_ID><CENTER_NAME>EARTH</CENTER_NAME><REF_FRAME>TEME</REF_FRAME><TIME_SYSTEM>UTC</TIME_SYSTEM><MEAN_ELEMENT_THEORY>SGP4</MEAN_ELEMENT_THEORY></metadata><data><meanElements><EPOCH>2025-09-07T14:53:35.186496</EPOCH><MEAN_MOTION>14.79942801</MEAN_MOTION><ECCENTRICITY>.00028308</ECCENTRICITY><INCLINATION>51.8988</INCLINATION><RA_OF_ASC_NODE>216.1224</RA_OF_ASC_NODE><ARG_OF_PERICENTER>309.1354</ARG_OF_PERICENTER><MEAN_ANOMALY>50.9357</MEAN_ANOMALY></meanElements><tleParameters><EPHEMERIS_TYPE>0</EPHEMERIS_TYPE><CLASSIFICATION_TYPE>U</CLASSIFICATION_TYPE><NORAD_CAT_ID>63746</NORAD_CAT_ID><ELEMENT_SET_NO>999</ELEMENT_SET_NO><REV_AT_EPOCH>2049</REV_AT_EPOCH><BSTAR>.62869432E-3</BSTAR><MEAN_MOTION_DOT>.4576E-4</MEAN_MOTION_DOT><MEAN_MOTION_DDOT>0</MEAN_MOTION_DDOT></tleParameters></data></segment></body></omm>
<omm id="CCSDS_OMM_VERS" version="2.0">
<header><CREATION_DATE/><ORIGINATOR/></header><body><segment><metadata><OBJECT_NAME>KUIPER-00034</OBJECT_NAME><OBJECT_ID>2025-088Z</OBJECT_ID><CENTER_NAME>EARTH</CENTER_NAME><REF_FRAME>TEME</REF_FRAME><TIME_SYSTEM>UTC</TIME_SYSTEM><MEAN_ELEMENT_THEORY>SGP4</MEAN_ELEMENT_THEORY></metadata><data><meanElements><EPOCH>2025-09-08T06:00:02.000160</EPOCH><MEAN_MOTION>15.19959755</MEAN_MOTION><ECCENTRICITY>.0001075</ECCENTRICITY><INCLINATION>51.8788</INCLINATION><RA_OF_ASC_NODE>179.5971</RA_OF_ASC_NODE><ARG_OF_PERICENTER>136.7614</ARG_OF_PERICENTER><MEAN_ANOMALY>319.6888</MEAN_ANOMALY></meanElements><tleParameters><EPHEMERIS_TYPE>0</EPHEMERIS_TYPE><CLASSIFICATION_TYPE>U</CLASSIFICATION_TYPE><NORAD_CAT_ID>63747</NORAD_CAT_ID><ELEMENT_SET_NO>999</ELEMENT_SET_NO><REV_AT_EPOCH>550</REV_AT_EPOCH><BSTAR>.27242934E-2</BSTAR><MEAN_MOTION_DOT>.59555E-3</MEAN_MOTION_DOT><MEAN_MOTION_DDOT>0</MEAN_MOTION_DDOT></tleParameters></data></segment></body></omm>

</ndm>
